{
  "type": "FeatureCollection",
  "features": [
    {
      "type": "Feature",
      "properties": {
        "norad_id": 29807,
        "name": "FENGYUN 1C DEB",
        "group": "fengyun-1c-debris",
        "lat": -13.275035378450891,
        "lon": 2.3830123480247902,
        "alt_km": 824.8632580802787,
        "timestamp": "2025-12-21T22:41:41.731392+00:00",
        "meta_object_name": "FENGYUN 1C DEB",
        "meta_object_id": "1999-025CZ",
        "meta_epoch": "2025-12-21T12:31:47.222976",
        "meta_mean_motion": 14.08665484,
        "meta_eccentricity": 0.00791895,
        "meta_inclination": 98.7547,
        "meta_ra_of_asc_node": 359.8883,
        "meta_arg_of_pericenter": 306.9524,
        "meta_mean_anomaly": 52.4412,
        "meta_ephemeris_type": 0,
        "meta_classification_type": "U",
        "meta_norad_cat_id": 29807,
        "meta_element_set_no": 999,
        "meta_rev_at_epoch": 97218,
        "meta_bstar": 0.00025387508,
        "meta_mean_motion_dot": 4.06e-06,
        "meta_mean_motion_ddot": 0,
        "tle_line1": "1 29807U 99025CZ  25355.52207434  .00000406  00000+0  25388-3 0  9996",
        "tle_line2": "2 29807  98.7547 359.8883 0079189 306.9524  52.4412 14.08665484972186"
      },
      "geometry": {
        "type": "Point",
        "coordinates": [
          2.3830123480247902,
          -13.275035378450891
        ]
      }
    },
    {
      "type": "Feature",
      "properties": {
        "norad_id": 29808,
        "name": "FENGYUN 1C DEB",
        "group": "fengyun-1c-debris",
        "lat": -23.44678670831927,
        "lon": -79.89833656070556,
        "alt_km": 492.6890110491986,
        "timestamp": "2025-12-21T22:41:41.731402+00:00",
        "meta_object_name": "FENGYUN 1C DEB",
        "meta_object_id": "1999-025DA",
        "meta_epoch": "2025-12-21T06:09:51.516000",
        "meta_mean_motion": 15.2692959,
        "meta_eccentricity": 0.001999,
        "meta_inclination": 99.0136,
        "meta_ra_of_asc_node": 275.3231,
        "meta_arg_of_pericenter": 83.1853,
        "meta_mean_anomaly": 69.0564,
        "meta_ephemeris_type": 0,
        "meta_classification_type": "U",
        "meta_norad_cat_id": 29808,
        "meta_element_set_no": 999,
        "meta_rev_at_epoch": 98355,
        "meta_bstar": 0.011099,
        "meta_mean_motion_dot": 0.00307005,
        "meta_mean_motion_ddot": 0,
        "tle_line1": "1 29808U 99025DA  25355.25684625  .00307005  00000+0  11099-1 0  9995",
        "tle_line2": "2 29808  99.0136 275.3231 0019990  83.1853  69.0564 15.26929590983554"
      },
      "geometry": {
        "type": "Point",
        "coordinates": [
          -79.89833656070556,
          -23.44678670831927
        ]
      }
    },
    {
      "type": "Feature",
      "properties": {
        "norad_id": 29809,
        "name": "FENGYUN 1C DEB",
        "group": "fengyun-1c-debris",
        "lat": -4.021894707859892,
        "lon": 139.2780033839089,
        "alt_km": 801.3058228399359,
        "timestamp": "2025-12-21T22:41:41.731412+00:00",
        "meta_object_name": "FENGYUN 1C DEB",
        "meta_object_id": "1999-025DB",
        "meta_epoch": "2025-12-21T09:18:56.387232",
        "meta_mean_motion": 14.46613493,
        "meta_eccentricity": 0.01156052,
        "meta_inclination": 98.8612,
        "meta_ra_of_asc_node": 319.3236,
        "meta_arg_of_pericenter": 324.0484,
        "meta_mean_anomaly": 199.2633,
        "meta_ephemeris_type": 0,
        "meta_classification_type": "U",
        "meta_norad_cat_id": 29809,
        "meta_element_set_no": 999,
        "meta_rev_at_epoch": 99592,
        "meta_bstar": 0.00027500658,
        "meta_mean_motion_dot": 1.023e-05,
        "meta_mean_motion_ddot": 0,
        "tle_line1": "1 29809U 99025DB  25355.38815263  .00001023  00000+0  27501-3 0  9992",
        "tle_line2": "2 29809  98.8612 319.3236 0115605 324.0484 199.2633 14.46613493995922"
      },
      "geometry": {
        "type": "Point",
        "coordinates": [
          139.2780033839089,
          -4.021894707859892
        ]
      }
    },
    {
      "type": "Feature",
      "properties": {
        "norad_id": 29810,
        "name": "FENGYUN 1C DEB",
        "group": "fengyun-1c-debris",
        "lat": -9.629536651960118,
        "lon": 34.85682965486036,
        "alt_km": 750.9969426322787,
        "timestamp": "2025-12-21T22:41:41.731422+00:00",
        "meta_object_name": "FENGYUN 1C DEB",
        "meta_object_id": "1999-025DC",
        "meta_epoch": "2025-12-21T14:54:18.408096",
        "meta_mean_motion": 14.29141446,
        "meta_eccentricity": 0.00665069,
        "meta_inclination": 99.2056,
        "meta_ra_of_asc_node": 32.9376,
        "meta_arg_of_pericenter": 353.406,
        "meta_mean_anomaly": 128.0073,
        "meta_ephemeris_type": 0,
        "meta_classification_type": "U",
        "meta_norad_cat_id": 29810,
        "meta_element_set_no": 999,
        "meta_rev_at_epoch": 98504,
        "meta_bstar": 0.00021142883,
        "meta_mean_motion_dot": 5e-06,
        "meta_mean_motion_ddot": 0,
        "tle_line1": "1 29810U 99025DC  25355.62104639  .00000500  00000+0  21143-3 0  9994",
        "tle_line2": "2 29810  99.2056  32.9376 0066506 353.4060 128.0073 14.29141446985040"
      },
      "geometry": {
        "type": "Point",
        "coordinates": [
          34.85682965486036,
          -9.629536651960118
        ]
      }
    },
    {
      "type": "Feature",
      "properties": {
        "norad_id": 29812,
        "name": "FENGYUN 1C DEB",
        "group": "fengyun-1c-debris",
        "lat": 50.687264536842825,
        "lon": 173.6876398487204,
        "alt_km": 915.925915218214,
        "timestamp": "2025-12-21T22:41:41.731432+00:00",
        "meta_object_name": "FENGYUN 1C DEB",
        "meta_object_id": "1999-025DE",
        "meta_epoch": "2025-12-19T19:08:47.973408",
        "meta_mean_motion": 14.02010991,
        "meta_eccentricity": 0.01438745,
        "meta_inclination": 98.3491,
        "meta_ra_of_asc_node": 182.0506,
        "meta_arg_of_pericenter": 307.933,
        "meta_mean_anomaly": 67.3826,
        "meta_ephemeris_type": 0,
        "meta_classification_type": "U",
        "meta_norad_cat_id": 29812,
        "meta_element_set_no": 999,
        "meta_rev_at_epoch": 96271,
        "meta_bstar": 0.00079236454,
        "meta_mean_motion_dot": 1.283e-05,
        "meta_mean_motion_ddot": 0,
        "tle_line1": "1 29812U 99025DE  25353.79777747  .00001283  00000+0  79236-3 0  9993",
        "tle_line2": "2 29812  98.3491 182.0506 0143874 307.9330  67.3826 14.02010991962716"
      },
      "geometry": {
        "type": "Point",
        "coordinates": [
          173.6876398487204,
          50.687264536842825
        ]
      }
    },
    {
      "type": "Feature",
      "properties": {
        "norad_id": 29813,
        "name": "FENGYUN 1C DEB",
        "group": "fengyun-1c-debris",
        "lat": -71.26809608036112,
        "lon": 42.45322683331403,
        "alt_km": 868.7453752939873,
        "timestamp": "2025-12-21T22:41:41.731442+00:00",
        "meta_object_name": "FENGYUN 1C DEB",
        "meta_object_id": "1999-025DF",
        "meta_epoch": "2025-12-21T01:01:14.528064",
        "meta_mean_motion": 14.09453639,
        "meta_eccentricity": 0.00122138,
        "meta_inclination": 98.7266,
        "meta_ra_of_asc_node": 14.6456,
        "meta_arg_of_pericenter": 197.6026,
        "meta_mean_anomaly": 189.1645,
        "meta_ephemeris_type": 0,
        "meta_classification_type": "U",
        "meta_norad_cat_id": 29813,
        "meta_element_set_no": 999,
        "meta_rev_at_epoch": 97377,
        "meta_bstar": 3.7046082e-05,
        "meta_mean_motion_dot": 2.2e-07,
        "meta_mean_motion_ddot": 0,
        "tle_line1": "1 29813U 99025DF  25355.04252926  .00000022  00000+0  37046-4 0  9995",
        "tle_line2": "2 29813  98.7266  14.6456 0012213 197.6026 189.1645 14.09453639973770"
      },
      "geometry": {
        "type": "Point",
        "coordinates": [
          42.45322683331403,
          -71.26809608036112
        ]
      }
    },
    {
      "type": "Feature",
      "properties": {
        "norad_id": 29815,
        "name": "FENGYUN 1C DEB",
        "group": "fengyun-1c-debris",
        "lat": -77.82310407288338,
        "lon": 143.24055923820922,
        "alt_km": 805.2677640631646,
        "timestamp": "2025-12-21T22:41:41.731452+00:00",
        "meta_object_name": "FENGYUN 1C DEB",
        "meta_object_id": "1999-025DH",
        "meta_epoch": "2025-12-19T23:35:00.032064",
        "meta_mean_motion": 14.63755679,
        "meta_eccentricity": 0.0184132,
        "meta_inclination": 98.0554,
        "meta_ra_of_asc_node": 2.3393,
        "meta_arg_of_pericenter": 112.5038,
        "meta_mean_anomaly": 249.5773,
        "meta_ephemeris_type": 0,
        "meta_classification_type": "U",
        "meta_norad_cat_id": 29815,
        "meta_element_set_no": 999,
        "meta_rev_at_epoch": 99961,
        "meta_bstar": 0.00031893,
        "meta_mean_motion_dot": 2.073e-05,
        "meta_mean_motion_ddot": 0,
        "tle_line1": "1 29815U 99025DH  25353.98263926  .00002073  00000+0  31893-3 0  9991",
        "tle_line2": "2 29815  98.0554   2.3393 0184132 112.5038 249.5773 14.63755679999611"
      },
      "geometry": {
        "type": "Point",
        "coordinates": [
          143.24055923820922,
          -77.82310407288338
        ]
      }
    }
  ]
}